[
  {
    "name": "ONEWEB-0702",
    "noradId": "61608",
    "line1": "1 61608U 24188Q   26157.33798896 -.00000395  00000+0 -11493-2 0  9996",
    "line2": "2 61608  87.8920  23.1436 0001550 116.6090 243.5197 13.11416508 83068"
  },
  {
    "name": "ONEWEB-0704",
    "noradId": "61609",
    "line1": "1 61609U 24188R   26157.37937963 -.00000447  00000+0 -13172-2 0  9995",
    "line2": "2 61609  87.8853  38.4061 0001763 118.6588 241.4717 13.10370464 81878"
  },
  {
    "name": "ONEWEB-0705",
    "noradId": "61610",
    "line1": "1 61610U 24188S   26157.38436434 -.00001838  00000+0 -53037-2 0  9994",
    "line2": "2 61610  87.8849  38.4112 0002321 107.9966 252.1414 13.10359850 74044"
  },
  {
    "name": "ONEWEB-0706",
    "noradId": "61611",
    "line1": "1 61611U 24188T   26157.36942699  .00000092  00000+0  22825-3 0  9999",
    "line2": "2 61611  87.8841  38.4195 0001764 101.6704 258.4621 13.10369859 81967"
  },
  {
    "name": "ONEWEB-0707",
    "noradId": "61612",
    "line1": "1 61612U 24188U   26157.14698639 -.00000277  00000+0 -82908-3 0  9993",
    "line2": "2 61612  87.8855  38.4564 0001694  98.6363 261.4956 13.10369843 81879"
  },
  {
    "name": "ONEWEB-0708",
    "noradId": "61613",
    "line1": "1 61613U 24188V   26157.39431259 -.00000666  00000+0 -19442-2 0  9998",
    "line2": "2 61613  87.8846  38.4274 0002274  88.8396 271.2992 13.10373460 81880"
  }
]